
from pytest import fixture, raises

from datetime import timedelta

from beyond.orbits import Tle
from beyond.orbits.man import Maneuver
from beyond.utils.ccsds import dumps, loads
from beyond.dates import Date


ref_opm = """CCSDS_OPM_VERS = 2.0
CREATION_DATE = 2017-06-21T13:20:25
ORIGINATOR = N/A

META_START
OBJECT_NAME          = N/A
OBJECT_ID            = N/A
CENTER_NAME          = EARTH
REF_FRAME            = TEME
TIME_SYSTEM          = UTC
META_STOP

COMMENT  State Vector
EPOCH                = 2008-09-20T12:25:40.104192
X                    =  4086.147180 [km]
Y                    =  -994.936814 [km]
Z                    =  5250.678791 [km]
X_DOT                =     2.511071 [km/s]
Y_DOT                =     7.255240 [km/s]
Z_DOT                =    -0.583165 [km/s]

COMMENT  Keplerian elements
SEMI_MAJOR_AXIS      =  6730.963463 [km]
ECCENTRICITY         =     0.000670
INCLINATION          =    51.641600 [deg]
RA_OF_ASC_NODE       =   247.462700 [deg]
ARG_OF_PERICENTER    =   130.536000 [deg]
TRUE_ANOMALY         =   324.984745 [deg]"""

ref_man = ref_opm + """

COMMENT  Maneuver 1
MAN_EPOCH_IGNITION   = 2008-09-20T12:41:09.984493
MAN_DURATION         = 0.000 [s]
MAN_DELTA_MASS       = 0.000 [kg]
MAN_REF_FRAME        = TNW
MAN_DV_1             = 0.280000 [km/s]
MAN_DV_2             = 0.000000 [km/s]
MAN_DV_3             = 0.000000 [km/s]

COMMENT  Maneuver 2
MAN_EPOCH_IGNITION   = 2008-09-20T13:33:11.374985
MAN_DURATION         = 0.000 [s]
MAN_DELTA_MASS       = 0.000 [kg]
MAN_REF_FRAME        = TNW
MAN_DV_1             = 0.270000 [km/s]
MAN_DV_2             = 0.000000 [km/s]
MAN_DV_3             = 0.000000 [km/s]
"""

ref_opm_no_units = """CCSDS_OPM_VERS = 2.0
CREATION_DATE = 2017-06-21T13:20:25
ORIGINATOR = N/A

META_START
OBJECT_NAME          = N/A
OBJECT_ID            = N/A
CENTER_NAME          = EARTH
REF_FRAME            = TEME
TIME_SYSTEM          = UTC
META_STOP

COMMENT  State Vector
EPOCH                = 2008-09-20T12:25:40.104192
X                    =  4086.147180
Y                    =  -994.936814
Z                    =  5250.678791
X_DOT                =     2.511071
Y_DOT                =     7.255240
Z_DOT                =    -0.583165

COMMENT  Keplerian elements
SEMI_MAJOR_AXIS      =  6730.963463
ECCENTRICITY         =     0.000670
INCLINATION          =    51.641600
RA_OF_ASC_NODE       =   247.462700
ARG_OF_PERICENTER    =   130.536000
TRUE_ANOMALY         =   324.984745"""

ref_opm_strange_units = """CCSDS_OPM_VERS = 2.0
CREATION_DATE = 2017-06-21T13:20:25
ORIGINATOR = N/A

META_START
OBJECT_NAME          = N/A
OBJECT_ID            = N/A
CENTER_NAME          = EARTH
REF_FRAME            = TEME
TIME_SYSTEM          = UTC
META_STOP

COMMENT  State Vector
EPOCH                = 2008-09-20T12:25:40.104192
X                    =  3459023.611 [m]
Y                    =  5617725.542 [m]
Z                    =  1316222.323 [m]
X_DOT                =    -3535.844 [m/s]
Y_DOT                =     3550.405 [m/s]
Z_DOT                =    -5846.067 [m/s]

COMMENT  Keplerian elements
SEMI_MAJOR_AXIS      =  6730.963463 [km]
ECCENTRICITY         =     0.000670
INCLINATION          =    51.641600 [deg]
RA_OF_ASC_NODE       =   247.462700 [deg]
ARG_OF_PERICENTER    =   130.536000 [deg]
TRUE_ANOMALY         =    35.015255 [deg]"""

ref_oem = """CCSDS_OEM_VERS = 2.0
CREATION_DATE = 2017-06-21T13:21:32
ORIGINATOR = N/A

META_START
OBJECT_NAME          = N/A
OBJECT_ID            = N/A
CENTER_NAME          = EARTH
REF_FRAME            = TEME
TIME_SYSTEM          = UTC
START_TIME           = 2008-09-20T12:25:40.104192
STOP_TIME            = 2008-09-20T14:25:40.104192
INTERPOLATION        = LAGRANGE
INTERPOLATION_DEGREE = 7
META_STOP

2008-09-20T13:19:40.104192 -4645.083540 -2541.010297 -4169.963408   0.357384  -6.724831   3.702386
2008-09-20T13:22:40.104192 -4483.663382 -3689.630755 -3420.399045   1.430078  -5.992658   4.596909
2008-09-20T13:25:40.104192 -4133.794212 -4683.164832 -2526.661729   2.443897  -5.007591   5.298597
2008-09-20T13:28:40.104192 -3609.971567 -5479.615268 -1526.297610   3.356046  -3.810467   5.777381
2008-09-20T13:31:40.104192 -2934.059087 -6045.194803 -461.449620   4.127752  -2.451365   6.012455
2008-09-20T13:34:40.104192 -2134.404723 -6355.810710  622.909564   4.726019  -0.987549   5.993323
2008-09-20T13:37:40.104192 -1244.659051 -6398.142795  1680.893769   5.125155   0.518989   5.720383
2008-09-20T13:40:40.104192 -302.347805 -6170.249938  2667.675635   5.307970   2.004277   5.204973
2008-09-20T13:43:40.104192  652.736161 -5681.669803  3541.421025   5.266551   3.405222   4.468880
2008-09-20T13:46:40.104192  1580.238051 -4953.007966  4265.085772   5.002582   4.662392   3.543335
2008-09-20T13:49:40.104192  2440.962450 -4015.045319  4807.993735   4.527208   5.722567   2.467599
2008-09-20T13:52:40.104192  3198.534420 -2907.413304  5147.130765   3.860491   6.540956   1.287226
2008-09-20T13:55:40.104192  3820.927739 -1676.908758  5268.104550   3.030513   7.082997   0.052125
2008-09-20T13:58:40.104192  4281.806286 -375.522033  5165.743308   2.072196   7.325730  -1.185510
2008-09-20T14:01:40.104192  4561.629818  941.740139  4844.316363   1.025879   7.258727  -2.373326
2008-09-20T14:04:40.104192  4648.486474  2219.161521  4317.369815  -0.064305   6.884566  -3.460952
2008-09-20T14:07:40.104192  4538.616206  3402.663700  3607.179446  -1.152223   6.218831  -4.402107
2008-09-20T14:10:40.104192  4236.598734  4442.108641  2743.832051  -2.191672   5.289589  -5.156603
2008-09-20T14:13:40.104192  3755.186698  5293.456116  1763.962307  -3.138383   4.136309  -5.692163
2008-09-20T14:16:40.104192  3114.777867  5920.677848  709.186816  -3.952004   2.808215  -5.985926
2008-09-20T14:19:40.104192  2342.541924  6297.324902 -375.694970  -4.597935   1.362119  -6.025530
2008-09-20T14:22:40.104192  1471.237347  6407.666741 -1444.650659  -5.048908  -0.140158  -5.809680
2008-09-20T14:25:40.104192  537.778438  6247.339803 -2452.414417  -5.286183  -1.634621  -5.348147

META_START
OBJECT_NAME          = N/A
OBJECT_ID            = N/A
CENTER_NAME          = EARTH
REF_FRAME            = TEME
TIME_SYSTEM          = UTC
START_TIME           = 2008-09-20T12:25:40.104192
STOP_TIME            = 2008-09-20T17:25:40.104192
INTERPOLATION        = LAGRANGE
INTERPOLATION_DEGREE = 7
META_STOP

2008-09-20T12:25:40.104192  4083.902464 -993.632000  5243.603665   2.512837   7.259889  -0.583779
2008-09-20T12:30:40.104192  4584.684905  1199.780102  4764.992327   0.792658   7.218932  -2.575706
2008-09-20T12:35:40.104192  4550.075225  3253.056142  3728.338205  -1.021330   6.334636  -4.267271
2008-09-20T12:40:40.104192  3983.777724  4926.185054  2254.768787  -2.716851   4.709550  -5.459500
2008-09-20T12:45:40.104192  2951.866337  6023.560789  516.902443  -4.094630   2.534415  -6.011747
2008-09-20T12:50:40.104192  1575.141084  6417.380009 -1281.554215  -4.992967   0.065865  -5.859672
2008-09-20T12:55:40.104192  14.667968  6062.814340 -2930.196340  -5.307898  -2.405451  -5.023347
2008-09-20T13:00:40.104192 -1547.588380  5002.798714 -4236.996080  -5.005253  -4.591171  -3.603649
2008-09-20T13:05:40.104192 -2930.290388  3362.066463 -5050.651514  -4.122971  -6.239590  -1.768154
2008-09-20T13:10:40.104192 -3973.581416  1331.815891 -5277.556509  -2.764640  -7.163190   0.269951
2008-09-20T13:15:40.104192 -4556.986380 -852.586795 -4891.881774  -1.086676  -7.257428   2.276173
2008-09-20T13:20:40.104192 -4612.788067 -2938.238256 -3938.207881   0.718740  -6.510963   4.019790
2008-09-20T13:25:40.104192 -4133.794212 -4683.164832 -2526.661729   2.443897  -5.007591   5.298597
2008-09-20T13:30:40.104192 -3174.633875 -5884.021032 -820.825370   3.888295  -2.918984   5.962045
2008-09-20T13:35:40.104192 -1846.044626 -6400.063894  980.756113   4.882224  -0.486971   5.930207
2008-09-20T13:40:40.104192 -302.347805 -6170.249938  2667.675635   5.307970   2.004277   5.204973
2008-09-20T13:45:40.104192  1276.597274 -5220.867585  4042.579875   5.114802   4.262749   3.870624
2008-09-20T13:50:40.104192  2706.632631 -3662.505407  4944.576102   4.324997   6.024160   2.083373
2008-09-20T13:55:40.104192  3820.927739 -1676.908758  5268.104550   3.030513   7.082997   0.052125
2008-09-20T14:00:40.104192  4489.371914  504.339233  4975.149628   1.381764   7.315587  -1.986097
2008-09-20T14:05:40.104192  4633.666973  2626.676294  4099.664329  -0.429495   6.693914  -3.793073
2008-09-20T14:10:40.104192  4236.598734  4442.108641  2743.832051  -2.191672   5.289589  -5.156603
2008-09-20T14:15:40.104192  3344.364214  5738.351052  1066.380629  -3.697858   3.266959  -5.915859
2008-09-20T14:20:40.104192  2061.362263  6364.147872 -736.053541  -4.771031   0.864458  -5.981705
2008-09-20T14:25:40.104192  537.778438  6247.339803 -2452.414417  -5.286183  -1.634621  -5.348147
2008-09-20T14:30:40.104192 -1048.497426  5403.071932 -3882.469115  -5.185362  -3.937671  -4.092337
2008-09-20T14:35:40.104192 -2513.062834  3931.172787 -4860.324226  -4.483189  -5.778337  -2.363390
2008-09-20T14:40:40.104192 -3686.411591  2003.590210 -5273.261661  -3.263042  -6.946515  -0.363000
2008-09-20T14:45:40.104192 -4433.055302 -155.943953 -5074.028763  -1.666029  -7.309929   1.678211
2008-09-20T14:50:40.104192 -4666.563562 -2297.401592 -4285.776747   0.124854  -6.827011   3.525699
2008-09-20T14:55:40.104192 -4359.312174 -4172.573395 -2999.483983   1.904032  -5.551521   4.965937
2008-09-20T15:00:40.104192 -3546.002435 -5563.278288 -1364.027860   3.465447  -3.628389   5.830255
2008-09-20T15:05:40.104192 -2320.265555 -6306.837313  430.484414   4.626239  -1.279412   6.015441
2008-09-20T15:10:40.104192 -824.255761 -6315.657399  2174.657538   5.249237   1.221550   5.497700
2008-09-20T15:15:40.104192  767.847305 -5588.066457  3664.511202   5.260407   3.581462   4.336657
2008-09-20T15:20:40.104192  2270.385336 -4208.690768  4725.699404   4.657991   5.523940   2.668155
2008-09-20T15:25:40.104192  3508.084174 -2338.383928  5234.048215   3.512148   6.822175   0.687363
